2024-166B               
1 61180U 24166B   26067.67341263  .00038147  00000+0  25198-3 0  9998
2 61180  96.6921 322.5475 0002182 351.2198   8.9031 15.75502359 84916
STARLINK-11691 [DTC]    
1 64236U 25119D   26068.41702582  .00384356  00000+0  28225-2 0  9999
2 64236  42.9997 210.5971 0002841 265.8335  94.2208 15.71175477 45206
